EOSSAT-1                
1 55053U 23001AW  26068.73619225  .00007695  00000+0  24844-3 0  9992
2 55053  97.3357 130.2294 0011263 110.3168 249.9285 15.32339828176689
STARLINK-34823          
1 65355U 25190E   26068.54039069  .00027737  00000+0  94540-3 0  9999
2 65355  53.1597 168.7809 0001152  86.0047 274.1086 15.30190871 29733
