[{"OBJECT_NAME":"EOSSAT-1","OBJECT_ID":"2023-001AW","EPOCH":"2026-03-09T17:40:07.010400","MEAN_MOTION":15.32339828,"ECCENTRICITY":0.00112629,"INCLINATION":97.3357,"RA_OF_ASC_NODE":130.2294,"ARG_OF_PERICENTER":110.3168,"MEAN_ANOMALY":249.9285,"EPHEMERIS_TYPE":0,"CLASSIFICATION_TYPE":"U","NORAD_CAT_ID":55053,"ELEMENT_SET_NO":999,"REV_AT_EPOCH":17668,"BSTAR":0.00024844399,"MEAN_MOTION_DOT":7.695e-5,"MEAN_MOTION_DDOT":0},{"OBJECT_NAME":"STARLINK-34823","OBJECT_ID":"2025-190E","EPOCH":"2026-03-09T12:58:09.755616","MEAN_MOTION":15.30190871,"ECCENTRICITY":0.00011528,"INCLINATION":53.1597,"RA_OF_ASC_NODE":168.7809,"ARG_OF_PERICENTER":86.0047,"MEAN_ANOMALY":274.1086,"EPHEMERIS_TYPE":0,"CLASSIFICATION_TYPE":"U","NORAD_CAT_ID":65355,"ELEMENT_SET_NO":999,"REV_AT_EPOCH":2973,"BSTAR":0.0009453984,"MEAN_MOTION_DOT":0.00027737,"MEAN_MOTION_DDOT":0}]
